{"type": "FeatureCollection", "features": [ {"type": "Feature", "properties": {"norad_id": 33939, "name": "COSMOS 2251 DEB", "group": "cosmos-2251-debris", "lat": -15.257458096831677, "lon": -103.18411989502043, "alt_km": 573.2224053257578, "timestamp": "2025-12-16T19:34:24.661651+00:00", "meta": {"OBJECT_NAME": "COSMOS 2251 DEB", "OBJECT_ID": "1993-036EU", "EPOCH": "2025-12-15T13:53:40.339968", "MEAN_MOTION": 15.00120396, "ECCENTRICITY": 0.0003946, "INCLINATION": 74.0064, "RA_OF_ASC_NODE": 74.8459, "ARG_OF_PERICENTER": 45.5365, "MEAN_ANOMALY": 314.6144, "EPHEMERIS_TYPE": 0, "CLASSIFICATION_TYPE": "U", "NORAD_CAT_ID": 33939, "ELEMENT_SET_NO": 999, "REV_AT_EPOCH": 88795, "BSTAR": 0.0019552626, "MEAN_MOTION_DOT": 0.00024449, "MEAN_MOTION_DDOT": 0}, "tle": {"line1": "1 33939U 93036EU  25349.57893912  .00024449  00000+0  19553-2 0  9992", "line2": "2 33939  74.0064  74.8459 0003946  45.5365 314.6144 15.00120396887954"}}, "geometry": {"type": "Point", "coordinates": [-103.18411989502043, -15.257458096831677]}}, {"type": "Feature", "properties": {"norad_id": 33940, "name": "COSMOS 2251 DEB", "group": "cosmos-2251-debris", "lat": 71.93816420022048, "lon": -162.9046576878288, "alt_km": 695.1411424670023, "timestamp": "2025-12-16T19:34:24.661662+00:00", "meta": {"OBJECT_NAME": "COSMOS 2251 DEB", "OBJECT_ID": "1993-036EV", "EPOCH": "2025-12-15T20:43:26.696352", "MEAN_MOTION": 14.58826295, "ECCENTRICITY": 0.00111696, "INCLINATION": 74.0383, "RA_OF_ASC_NODE": 137.5483, "ARG_OF_PERICENTER": 217.4499, "MEAN_ANOMALY": 266.1508, "EPHEMERIS_TYPE": 0, "CLASSIFICATION_TYPE": "U", "NORAD_CAT_ID": 33940, "ELEMENT_SET_NO": 999, "REV_AT_EPOCH": 88639, "BSTAR": 0.00073745937, "MEAN_MOTION_DOT": 3.425e-05, "MEAN_MOTION_DDOT": 0}, "tle": {"line1": "1 33940U 93036EV  25349.86350343  .00003425  00000+0  73746-3 0  9998", "line2": "2 33940  74.0383 137.5483 0011169 217.4499 266.1508 14.58826295886393"}}, "geometry": {"type": "Point", "coordinates": [-162.9046576878288, 71.93816420022048]}}, {"type": "Feature", "properties": {"norad_id": 33942, "name": "COSMOS 2251 DEB", "group": "cosmos-2251-debris", "lat": -25.511302036351665, "lon": -100.52793906216888, "alt_km": 756.3644504077602, "timestamp": "2025-12-16T19:34:24.661672+00:00", "meta": {"OBJECT_NAME": "COSMOS 2251 DEB", "OBJECT_ID": "1993-036EX", "EPOCH": "2025-12-15T22:20:21.934752", "MEAN_MOTION": 14.37993293, "ECCENTRICITY": 0.00204584, "INCLINATION": 74.0366, "RA_OF_ASC_NODE": 268.9519, "ARG_OF_PERICENTER": 351.6039, "MEAN_ANOMALY": 83.6266, "EPHEMERIS_TYPE": 0, "CLASSIFICATION_TYPE": "U", "NORAD_CAT_ID": 33942, "ELEMENT_SET_NO": 999, "REV_AT_EPOCH": 88180, "BSTAR": 0.00021284756, "MEAN_MOTION_DOT": 6.19e-06, "MEAN_MOTION_DDOT": 0}, "tle": {"line1": "1 33942U 93036EX  25349.93080943  .00000619  00000+0  21285-3 0  9997", "line2": "2 33942  74.0366 268.9519 0020458 351.6039  83.6266 14.37993293881801"}}, "geometry": {"type": "Point", "coordinates": [-100.52793906216888, -25.511302036351665]}}, {"type": "Feature", "properties": {"norad_id": 33944, "name": "COSMOS 2251 DEB", "group": "cosmos-2251-debris", "lat": -18.394399394441027, "lon": 126.888632100515, "alt_km": 846.7731252810308, "timestamp": "2025-12-16T19:34:24.661682+00:00", "meta": {"OBJECT_NAME": "COSMOS 2251 DEB", "OBJECT_ID": "1993-036EZ", "EPOCH": "2025-12-15T22:53:49.423200", "MEAN_MOTION": 14.37350446, "ECCENTRICITY": 0.01123165, "INCLINATION": 74.0403, "RA_OF_ASC_NODE": 303.0122, "ARG_OF_PERICENTER": 41.7923, "MEAN_ANOMALY": 20.6891, "EPHEMERIS_TYPE": 0, "CLASSIFICATION_TYPE": "U", "NORAD_CAT_ID": 33944, "ELEMENT_SET_NO": 999, "REV_AT_EPOCH": 88074, "BSTAR": 0.0003395428, "MEAN_MOTION_DOT": 1.063e-05, "MEAN_MOTION_DDOT": 0}, "tle": {"line1": "1 33944U 93036EZ  25349.95404425  .00001063  00000+0  33954-3 0  9996", "line2": "2 33944  74.0403 303.0122 0112316  41.7923  20.6891 14.37350446880744"}}, "geometry": {"type": "Point", "coordinates": [126.888632100515, -18.394399394441027]}}, {"type": "Feature", "properties": {"norad_id": 33945, "name": "COSMOS 2251 DEB", "group": "cosmos-2251-debris", "lat": -46.64450583575032, "lon": -78.85638925291856, "alt_km": 778.1922286453073, "timestamp": "2025-12-16T19:34:24.661692+00:00", "meta": {"OBJECT_NAME": "COSMOS 2251 DEB", "OBJECT_ID": "1993-036FA", "EPOCH": "2025-12-15T22:02:40.640352", "MEAN_MOTION": 14.34603533, "ECCENTRICITY": 0.00220495, "INCLINATION": 74.0299, "RA_OF_ASC_NODE": 300.4422, "ARG_OF_PERICENTER": 25.9089, "MEAN_ANOMALY": 334.3162, "EPHEMERIS_TYPE": 0, "CLASSIFICATION_TYPE": "U", "NORAD_CAT_ID": 33945, "ELEMENT_SET_NO": 999, "REV_AT_EPOCH": 88061, "BSTAR": 0.00013419158, "MEAN_MOTION_DOT": 3.54e-06, "MEAN_MOTION_DDOT": 0}, "tle": {"line1": "1 33945U 93036FA  25349.91852593  .00000354  00000+0  13419-3 0  9992", "line2": "2 33945  74.0299 300.4422 0022049  25.9089 334.3162 14.34603533880619"}}, "geometry": {"type": "Point", "coordinates": [-78.85638925291856, -46.64450583575032]}}, {"type": "Feature", "properties": {"norad_id": 33948, "name": "COSMOS 2251 DEB", "group": "cosmos-2251-debris", "lat": 4.416643070962748, "lon": 116.38937721064171, "alt_km": 790.5873338879446, "timestamp": "2025-12-16T19:34:24.661702+00:00", "meta": {"OBJECT_NAME": "COSMOS 2251 DEB", "OBJECT_ID": "1993-036FD", "EPOCH": "2025-12-15T22:41:29.338080", "MEAN_MOTION": 14.35633193, "ECCENTRICITY": 0.00228511, "INCLINATION": 74.0358, "RA_OF_ASC_NODE": 299.252, "ARG_OF_PERICENTER": 14.2773, "MEAN_ANOMALY": 345.902, "EPHEMERIS_TYPE": 0, "CLASSIFICATION_TYPE": "U", "NORAD_CAT_ID": 33948, "ELEMENT_SET_NO": 999, "REV_AT_EPOCH": 88069, "BSTAR": 0.00019141876, "MEAN_MOTION_DOT": 5.28e-06, "MEAN_MOTION_DDOT": 0}, "tle": {"line1": "1 33948U 93036FD  25349.94547845  .00000528  00000+0  19142-3 0  9991", "line2": "2 33948  74.0358 299.2520 0022851  14.2773 345.9020 14.35633193880699"}}, "geometry": {"type": "Point", "coordinates": [116.38937721064171, 4.416643070962748]}}, {"type": "Feature", "properties": {"norad_id": 33971, "name": "COSMOS 2251 DEB", "group": "cosmos-2251-debris", "lat": -53.81117283849568, "lon": -136.85070494577835, "alt_km": 756.2632877084034, "timestamp": "2025-12-16T19:34:24.661712+00:00", "meta": {"OBJECT_NAME": "COSMOS 2251 DEB", "OBJECT_ID": "1993-036FE", "EPOCH": "2025-12-15T19:05:17.451168", "MEAN_MOTION": 14.39730769, "ECCENTRICITY": 0.00186503, "INCLINATION": 74.0247, "RA_OF_ASC_NODE": 248.086, "ARG_OF_PERICENTER": 347.9845, "MEAN_ANOMALY": 69.4228, "EPHEMERIS_TYPE": 0, "CLASSIFICATION_TYPE": "U", "NORAD_CAT_ID": 33971, "ELEMENT_SET_NO": 999, "REV_AT_EPOCH": 88183, "BSTAR": 0.00025417988, "MEAN_MOTION_DOT": 7.71e-06, "MEAN_MOTION_DDOT": 0}, "tle": {"line1": "1 33971U 93036FE  25349.79534087  .00000771  00000+0  25418-3 0  9997", "line2": "2 33971  74.0247 248.0860 0018650 347.9845  69.4228 14.39730769881835"}}, "geometry": {"type": "Point", "coordinates": [-136.85070494577835, -53.81117283849568]}}, {"type": "Feature", "properties": {"norad_id": 33972, "name": "COSMOS 2251 DEB", "group": "cosmos-2251-debris", "lat": -9.222856237696758, "lon": 5.830001793151408, "alt_km": 857.7206109927802, "timestamp": "2025-12-16T19:34:24.661723+00:00", "meta": {"OBJECT_NAME": "COSMOS 2251 DEB", "OBJECT_ID": "1993-036FF", "EPOCH": "2025-12-15T19:21:07.388064", "MEAN_MOTION": 14.36246564, "ECCENTRICITY": 0.01234326, "INCLINATION": 73.994, "RA_OF_ASC_NODE": 185.0166, "ARG_OF_PERICENTER": 352.1034, "MEAN_ANOMALY": 21.7399, "EPHEMERIS_TYPE": 0, "CLASSIFICATION_TYPE": "U", "NORAD_CAT_ID": 33972, "ELEMENT_SET_NO": 999, "REV_AT_EPOCH": 87118, "BSTAR": 0.00083641684, "MEAN_MOTION_DOT": 2.637e-05, "MEAN_MOTION_DDOT": 0}, "tle": {"line1": "1 33972U 93036FF  25349.80633551  .00002637  00000+0  83642-3 0  9992", "line2": "2 33972  73.9940 185.0166 0123432 352.1034  21.7399 14.36246564871185"}}, "geometry": {"type": "Point", "coordinates": [5.830001793151408, -9.222856237696758]}}, {"type": "Feature", "properties": {"norad_id": 33973, "name": "COSMOS 2251 DEB", "group": "cosmos-2251-debris", "lat": 68.2056235271329, "lon": 141.10615989843984, "alt_km": 765.8204883315448, "timestamp": "2025-12-16T19:34:24.661734+00:00", "meta": {"OBJECT_NAME": "COSMOS 2251 DEB", "OBJECT_ID": "1993-036FG", "EPOCH": "2025-12-15T19:05:09.907584", "MEAN_MOTION": 14.4539414, "ECCENTRICITY": 0.00473654, "INCLINATION": 74.0085, "RA_OF_ASC_NODE": 97.1879, "ARG_OF_PERICENTER": 275.057, "MEAN_ANOMALY": 252.8567, "EPHEMERIS_TYPE": 0, "CLASSIFICATION_TYPE": "U", "NORAD_CAT_ID": 33973, "ELEMENT_SET_NO": 999, "REV_AT_EPOCH": 88644, "BSTAR": 0.00014315024, "MEAN_MOTION_DOT": 4.82e-06, "MEAN_MOTION_DDOT": 0}, "tle": {"line1": "1 33973U 93036FG  25349.79525356  .00000482  00000+0  14315-3 0  9991", "line2": "2 33973  74.0085  97.1879 0047365 275.0570 252.8567 14.45394140886443"}}, "geometry": {"type": "Point", "coordinates": [141.10615989843984, 68.2056235271329]}}, {"type": "Feature", "properties": {"norad_id": 33975, "name": "COSMOS 2251 DEB", "group": "cosmos-2251-debris", "lat": 69.23968066030096, "lon": 127.35608681020015, "alt_km": 977.6551083667955, "timestamp": "2025-12-16T19:34:24.661744+00:00", "meta": {"OBJECT_NAME": "COSMOS 2251 DEB", "OBJECT_ID": "1993-036FJ", "EPOCH": "2025-12-15T22:37:23.928384", "MEAN_MOTION": 14.00531552, "ECCENTRICITY": 0.01912239, "INCLINATION": 73.802, "RA_OF_ASC_NODE": 78.8229, "ARG_OF_PERICENTER": 211.229, "MEAN_ANOMALY": 147.7371, "EPHEMERIS_TYPE": 0, "CLASSIFICATION_TYPE": "U", "NORAD_CAT_ID": 33975, "ELEMENT_SET_NO": 999, "REV_AT_EPOCH": 85874, "BSTAR": 0.00056526876, "MEAN_MOTION_DOT": 9.58e-06, "MEAN_MOTION_DDOT": 0}, "tle": {"line1": "1 33975U 93036FJ  25349.94263806  .00000958  00000+0  56527-3 0  9998", "line2": "2 33975  73.8020  78.8229 0191223 211.2290 147.7371 14.00531552858748"}}, "geometry": {"type": "Point", "coordinates": [127.35608681020015, 69.23968066030096]}}]}